[{"OBJECT_NAME":"TEVEL2-9","OBJECT_ID":"2025-052AD","EPOCH":"2026-03-09T16:51:18.321696","MEAN_MOTION":15.28633834,"ECCENTRICITY":0.000799,"INCLINATION":97.4057,"RA_OF_ASC_NODE":324.3929,"ARG_OF_PERICENTER":124.2475,"MEAN_ANOMALY":235.9522,"EPHEMERIS_TYPE":0,"CLASSIFICATION_TYPE":"U","NORAD_CAT_ID":63237,"ELEMENT_SET_NO":999,"REV_AT_EPOCH":5481,"BSTAR":0.00067240159,"MEAN_MOTION_DOT":0.00018694,"MEAN_MOTION_DDOT":0},{"OBJECT_NAME":"OBJECT P","OBJECT_ID":"2018-099P","EPOCH":"2026-03-09T16:35:55.790016","MEAN_MOTION":15.30834106,"ECCENTRICITY":0.00076856,"INCLINATION":97.4366,"RA_OF_ASC_NODE":131.9195,"ARG_OF_PERICENTER":276.7627,"MEAN_ANOMALY":83.2739,"EPHEMERIS_TYPE":0,"CLASSIFICATION_TYPE":"U","NORAD_CAT_ID":43771,"ELEMENT_SET_NO":999,"REV_AT_EPOCH":39830,"BSTAR":0.00063632878,"MEAN_MOTION_DOT":0.00018926,"MEAN_MOTION_DDOT":0}]
